FENGYUN 2F              
1 38049U 12002A   12042.71723791 -.00000363  00000-0  10000-3 0   285
2 38049   2.3431 277.8164 0006220 266.5549 327.2821  1.00271806   359
CZ-3A R/B               
1 38050U 12002B   12041.37224604  .00000334  00000-0  91858-3 0   183
2 38050  24.4121 105.6035 7236922 198.7957 105.8887  2.27061381   635
PROGRESS-M 14M          
1 38073U 12004A   12041.62148385  .00010806  00000-0  14233-3 0   276
2 38073  51.6418  41.9111 0020357  28.9211  77.6508 15.58808220  2458
NAVID                   
1 38075U 12005A   12042.77221589  .00124268  15733-4  46417-3 0   319
2 38075  56.0237 355.7199 0069470 151.3049 277.8469 15.83928062  1396
SAFIR 2 R/B             
1 38076U 12005B   12042.87738514  .00160745  19488-4  52073-3 0   217
2 38076  56.0181 355.1208 0075587 147.0315 213.5444 15.85827853  1415
